NORAD_CAT_ID,OBJECT_NAME,OBJECT_TYPE,EPOCH,MEAN_MOTION,ECCENTRICITY,INCLINATION,RA_OF_ASC_NODE,ARG_OF_PERICENTER,MEAN_ANOMALY,BSTAR,MEAN_MOTION_DOT,MEAN_MOTION_DDOT,TLE_LINE0,TLE_LINE1,TLE_LINE2,SEMIMAJOR_AXIS,PERIOD,APOGEE,PERIGEE,DECAYED
52568.0,STARLINK-3930,PAYLOAD,2023-03-09 00:31:39,15.08848036,0.0001714,53.2176,2.2556,95.0326,265.0862,0.00059831,9.249e-05,0.0,0 STARLINK-3930,1 52568U 22051AM  23068.02198244  .00009249  00000-0  59831-3 0  9998,2 52568  53.2176   2.2556 0001714  95.0326 265.0862 15.08848036 46091,6917.856,95.437,540.907,538.535,0.0
52568.0,STARLINK-3930,PAYLOAD,2023-03-09 02:07:02,15.08851376,0.0001459,53.2176,1.9612,74.7267,285.3887,0.0010235,0.00016044,0.0,0 STARLINK-3930,1 52568U 22051AM  23068.08822377  .00016044  00000-0  10235-2 0  9990,2 52568  53.2176   1.9612 0001459  74.7267 285.3887 15.08851376 46031,6917.846,95.437,540.72,538.701,0.0
52568.0,STARLINK-3930,PAYLOAD,2023-03-10 05:08:34,15.08902091,0.0001197,53.217,356.9043,76.4802,283.6323,0.0019444,0.00030846,0.0,0 STARLINK-3930,1 52568U 22051AM  23069.21428722  .00030846  00000-0  19444-2 0  9999,2 52568  53.2170 356.9043 0001197  76.4802 283.6323 15.08902091 46272,6917.691,95.434,540.384,538.728,0.0
52568.0,STARLINK-3930,PAYLOAD,2023-03-10 19:27:03,15.0880713,4.38e-05,53.2181,354.2303,332.5269,27.5699,9.356e-05,1.201e-05,0.0,0 STARLINK-3930,1 52568U 22051AM  23069.81046185  .00001201  00000-0  93560-4 0  9990,2 52568  53.2181 354.2303 0000438 332.5269  27.5699 15.08807130 46363,6917.981,95.44,540.149,539.543,0.0
52568.0,STARLINK-3930,PAYLOAD,2023-03-11 03:23:59,15.08833612,0.000121,53.2175,352.744,113.5878,246.5241,0.00059106,9.13e-05,0.0,0 STARLINK-3930,1 52568U 22051AM  23070.14166257  .00009130  00000-0  59106-3 0  9997,2 52568  53.2175 352.7440 0001210 113.5878 246.5241 15.08833612 46419,6917.9,95.438,540.602,538.928,0.0
52568.0,STARLINK-3930,PAYLOAD,2023-03-12 00:04:01,15.08833346,0.0001295,53.2176,348.8799,121.85,238.2619,0.00057223,8.829e-05,0.0,0 STARLINK-3930,1 52568U 22051AM  23071.00279259  .00008829  00000-0  57223-3 0  9992,2 52568  53.2176 348.8799 0001295 121.8500 238.2619 15.08833346 46545,6917.901,95.438,540.662,538.87,0.0
52568.0,STARLINK-3930,PAYLOAD,2023-03-13 04:40:56,15.08883127,0.0001199,53.2159,343.5234,96.2927,263.8201,0.001215,0.00019124,0.0,0 STARLINK-3930,1 52568U 22051AM  23072.19509695  .00019124  00000-0  12150-2 0  9992,2 52568  53.2159 343.5234 0001199  96.2927 263.8201 15.08883127 46726,6917.749,95.435,540.443,538.784,0.0
52568.0,STARLINK-3930,PAYLOAD,2023-03-13 22:10:07,15.08922167,0.0001012,53.2158,340.2522,95.0036,265.1072,0.0013136,0.00020727,0.0,0 STARLINK-3930,1 52568U 22051AM  23072.92370310  .00020727  00000-0  13136-2 0  9999,2 52568  53.2158 340.2522 0001012  95.0036 265.1072 15.08922167 46764,6917.629,95.432,540.194,538.794,0.0
52568.0,STARLINK-3930,PAYLOAD,2023-03-14 01:20:58,15.08823028,0.000109,53.2161,339.6595,106.5133,253.5978,0.0011713,0.00018394,0.0,0 STARLINK-3930,1 52568U 22051AM  23073.05623412  .00018394  00000-0  11713-2 0  9994,2 52568  53.2161 339.6595 0001090 106.5133 253.5978 15.08823028 46854,6917.932,95.439,540.551,539.043,0.0
52568.0,STARLINK-3930,PAYLOAD,2023-03-14 10:53:17,15.08833508,8.17e-05,53.2159,337.8787,96.3867,263.7218,0.00067941,0.0001054,0.0,0 STARLINK-3930,1 52568U 22051AM  23073.45367688  .00010540  00000-0  67941-3 0  9998,2 52568  53.2159 337.8787 0000817  96.3867 263.7218 15.08833508 46843,6917.9,95.438,540.33,539.2,0.0
52568.0,STARLINK-3930,PAYLOAD,2023-03-14 17:14:50,15.08836366,8.51e-05,53.2159,336.6851,116.568,243.5399,0.00058072,8.965e-05,0.0,0 STARLINK-3930,1 52568U 22051AM  23073.71863711  .00008965  00000-0  58072-3 0  9998,2 52568  53.2159 336.6851 0000851 116.5680 243.5399 15.08836366 46951,6917.891,95.438,540.345,539.168,0.0
52568.0,STARLINK-3930,PAYLOAD,2023-03-15 02:47:08,15.08891944,0.0001002,53.2157,334.9006,115.0985,245.0112,0.0029533,0.00047095,0.0,0 STARLINK-3930,1 52568U 22051AM  23074.11606659  .00047095  00000-0  29533-2 0  9995,2 52568  53.2157 334.9006 0001002 115.0985 245.0112 15.08891944 47014,6917.722,95.434,540.28,538.893,0.0
52568.0,STARLINK-3930,PAYLOAD,2023-03-15 21:51:46,15.08857108,0.0001062,53.2151,331.3317,120.6594,239.4503,0.0018541,0.00029357,0.0,0 STARLINK-3930,1 52568U 22051AM  23074.91094984  .00029357  00000-0  18541-2 0  9993,2 52568  53.2151 331.3317 0001062 120.6594 239.4503 15.08857108 47068,6917.828,95.436,540.428,538.958,0.0
52568.0,STARLINK-3930,PAYLOAD,2023-03-16 04:13:18,15.08873618,0.0001213,53.2164,330.1424,86.2518,273.8613,0.0020961,0.0003326,0.0,0 STARLINK-3930,1 52568U 22051AM  23075.17590733  .00033260  00000-0  20961-2 0  9992,2 52568  53.2164 330.1424 0001213  86.2518 273.8613 15.08873618 47179,6917.778,95.435,540.482,538.804,0.0
52568.0,STARLINK-3930,PAYLOAD,2023-03-16 07:24:05,15.08838811,0.0001489,53.2162,329.5474,47.8313,312.2805,0.0012624,0.0001986,0.0,0 STARLINK-3930,1 52568U 22051AM  23075.30839227  .00019860  00000-0  12624-2 0  9998,2 52568  53.2162 329.5474 0001489  47.8313 312.2805 15.08838811 47194,6917.884,95.438,540.779,538.719,0.0
52568.0,STARLINK-3930,PAYLOAD,2023-03-16 23:17:57,15.08817898,0.0001442,53.2162,326.5727,57.3409,302.7722,0.0010606,0.00016622,0.0,0 STARLINK-3930,1 52568U 22051AM  23075.97080646  .00016622  00000-0  10606-2 0  9995,2 52568  53.2162 326.5727 0001442  57.3409 302.7722 15.08817898 47298,6917.948,95.439,540.811,538.815,0.0
52568.0,STARLINK-3930,PAYLOAD,2023-03-17 23:08:44,15.08876941,0.0001379,53.2165,322.1128,60.9901,299.1229,0.0017818,0.00028212,0.0,0 STARLINK-3930,1 52568U 22051AM  23076.96440028  .00028212  00000-0  17818-2 0  9999,2 52568  53.2165 322.1128 0001379  60.9901 299.1229 15.08876941 47378,6917.767,95.435,540.586,538.679,0.0
52568.0,STARLINK-3930,PAYLOAD,2023-03-18 02:19:30,15.08883351,0.0001348,53.2163,321.5189,59.2671,300.8453,0.0016421,0.00025974,0.0,0 STARLINK-3930,1 52568U 22051AM  23077.09687647  .00025974  00000-0  16421-2 0  9995,2 52568  53.2163 321.5189 0001348  59.2671 300.8453 15.08883351 47469,6917.748,95.435,540.545,538.68,0.0
52568.0,STARLINK-3930,PAYLOAD,2023-03-18 08:41:02,15.08866936,0.0002027,53.2159,320.3272,64.6597,295.4605,0.00060003,9.281e-05,0.0,0 STARLINK-3930,1 52568U 22051AM  23077.36184013  .00009281  00000-0  60003-3 0  9993,2 52568  53.2159 320.3272 0002027  64.6597 295.4605 15.08866936 47509,6917.798,95.436,541.065,538.261,0.0
52568.0,STARLINK-3930,PAYLOAD,2023-03-18 21:24:07,15.08852427,0.0001378,53.2158,317.9508,78.0628,282.0519,0.0010962,0.00017207,0.0,0 STARLINK-3930,1 52568U 22051AM  23077.89175684  .00017207  00000-0  10962-2 0  9990,2 52568  53.2158 317.9508 0001378  78.0628 282.0519 15.08852427 47588,6917.842,95.437,540.661,538.754,0.0
52568.0,STARLINK-3930,PAYLOAD,2023-03-18 22:59:30,15.08854265,0.0001412,53.2161,317.6561,86.269,273.8464,0.0011123,0.00017465,0.0,0 STARLINK-3930,1 52568U 22051AM  23077.95799621  .00017465  00000-0  11123-2 0  9996,2 52568  53.2161 317.6561 0001412  86.2690 273.8464 15.08854265 47520,6917.837,95.437,540.679,538.725,0.0
52568.0,STARLINK-3930,PAYLOAD,2023-03-19 08:31:49,15.08852142,0.0001408,53.2156,315.8688,77.9478,282.1672,0.00094345,0.00014764,0.0,0 STARLINK-3930,1 52568U 22051AM  23078.35543662  .00014764  00000-0  94345-3 0  9990,2 52568  53.2156 315.8688 0001408  77.9478 282.1672 15.08852142 47650,6917.843,95.437,540.682,538.734,0.0
52568.0,STARLINK-3930,PAYLOAD,2023-03-19 21:14:54,15.08843808,0.0001359,53.2155,313.4902,90.8964,269.2184,0.00021488,3.134e-05,0.0,0 STARLINK-3930,1 52568U 22051AM  23078.88535613  .00003134  00000-0  21488-3 0  9992,2 52568  53.2155 313.4902 0001359  90.8964 269.2184 15.08843808 47733,6917.869,95.437,540.674,538.794,0.0
52568.0,STARLINK-3930,PAYLOAD,2023-03-20 08:22:36,15.08841913,0.0001203,53.2151,311.4082,96.8031,263.3098,0.00011607,1.56e-05,0.0,0 STARLINK-3930,1 52568U 22051AM  23079.34903501  .00001560  00000-0  11607-3 0  9992,2 52568  53.2151 311.4082 0001203  96.8031 263.3098 15.08841913 47739,6917.875,95.437,540.572,538.907,0.0
52568.0,STARLINK-3930,PAYLOAD,2023-03-20 22:41:04,15.08852298,0.0001304,53.2145,308.7325,101.8011,258.3127,0.00066193,0.00010266,0.0,0 STARLINK-3930,1 52568U 22051AM  23079.94519368  .00010266  00000-0  66193-3 0  9995,2 52568  53.2145 308.7325 0001304 101.8011 258.3127 15.08852298 47890,6917.843,95.437,540.61,538.806,0.0
52568.0,STARLINK-3930,PAYLOAD,2023-03-21 00:16:27,15.08855953,0.0001313,53.2143,308.4347,99.8444,260.2696,0.00080768,0.00012595,0.0,0 STARLINK-3930,1 52568U 22051AM  23080.01143301  .00012595  00000-0  80768-3 0  9996,2 52568  53.2143 308.4347 0001313  99.8444 260.2696 15.08855953 47833,6917.832,95.437,540.605,538.788,0.0
52568.0,STARLINK-3930,PAYLOAD,2023-03-21 20:56:28,15.08861647,0.0001406,53.2144,304.5688,93.6075,266.5078,0.0010605,0.0001664,0.0,0 STARLINK-3930,1 52568U 22051AM  23080.87255337  .00016640  00000-0  10605-2 0  9990,2 52568  53.2144 304.5688 0001406  93.6075 266.5078 15.08861647 48037,6917.814,95.436,540.652,538.707,0.0
52568.0,STARLINK-3930,PAYLOAD,2023-03-22 20:47:16,15.08855499,0.0001332,53.2142,300.1072,81.7726,278.3417,0.0015119,0.00023866,0.0,0 STARLINK-3930,1 52568U 22051AM  23081.86615748  .00023866  00000-0  15119-2 0  9999,2 52568  53.2142 300.1072 0001332  81.7726 278.3417 15.08855499 48185,6917.833,95.437,540.619,538.777,0.0
52568.0,STARLINK-3930,PAYLOAD,2023-03-22 22:22:39,15.08851553,0.0001276,53.2142,299.8097,83.4162,276.6975,0.0011527,0.00018111,0.0,0 STARLINK-3930,1 52568U 22051AM  23081.93239707  .00018111  00000-0  11527-2 0  9990,2 52568  53.2142 299.8097 0001276  83.4162 276.6975 15.08851553 48194,6917.845,95.437,540.593,538.827,0.0
52568.0,STARLINK-3930,PAYLOAD,2023-03-23 20:38:03,15.08845132,0.0001289,53.2131,295.6471,66.2622,293.8506,0.0011044,0.00017335,0.0,0 STARLINK-3930,1 52568U 22051AM  23082.85976252  .00017335  00000-0  11044-2 0  9996,2 52568  53.2131 295.6471 0001289  66.2622 293.8506 15.08845132 48339,6917.865,95.437,540.621,538.838,0.0
